*******************************************************************************
Ephemeris / WWW_USER Tue Mar 11 05:35:03 2025 Pasadena, USA      / Horizons    
*******************************************************************************
Target body name: (2018 YU2)                      {source: JPL#5}
Center body name: Earth (399)                     {source: DE441}
Center-site name: Gemini South Obs., Cerro Pachon
*******************************************************************************
Start time      : A.D. 2018-Aug-14 22:26:00.0000 UT      
Stop  time      : A.D. 2018-Aug-15 11:08:00.0000 UT      
Step-size       : 1 minutes
*******************************************************************************
Target pole/equ : undefined
Target radii    : undefined                                                    
Center geodetic : 289.2634, -30.2406227, 2.71233  {E-lon(deg),Lat(deg),Alt(km)}
Center cylindric: 289.2634,5517.21435,-3194.81213 {E-lon(deg),Dxy(km),Dz(km)}
Center pole/equ : ITRF93                          {East-longitude positive}
Center radii    : 6378.137, 6378.137, 6356.752 km {Equator_a, b, pole_c}       
Target primary  : Sun
Vis. interferer : MOON (R_eq= 1737.400) km        {source: DE441}
Rel. light bend : Sun                             {source: DE441}
Rel. lght bnd GM: 1.3271E+11 km^3/s^2                                          
Small-body perts: Yes                             {source: SB441-N16}
Atmos refraction: NO (AIRLESS)
RA format       : HMS
Time format     : CAL 
Calendar mode   : Mixed Julian/Gregorian
RTS-only print  : NO       
EOP file        : eop.250310.p250606                                           
EOP coverage    : DATA-BASED 1962-JAN-20 TO 2025-MAR-10. PREDICTS-> 2025-JUN-05
Units conversion: 1 au= 149597870.700 km, c= 299792.458 km/s, 1 day= 86400.0 s 
Table cut-offs 1: Elevation (-90.0deg=NO ),Airmass (>38.000=NO), Daylight (YES)
Table cut-offs 2: Solar elongation (  0.0,180.0=NO ),Local Hour Angle( 0.0=NO )
Table cut-offs 3: RA/DEC angular rate (     0.0=NO )                           
*******************************************************************************
Initial IAU76/J2000 heliocentric ecliptic osculating elements (au, days, deg.):
  EPOCH=  2458477.5 ! 2018-Dec-25.00 (TDB)         Residual RMS= .22887        
   EC= .1533598773405833   QR= .920984914841031    TP= 2458549.1486254167      
   OM= 279.4515303175068   W=  253.4059234937716   IN= 2.850769624588425       
  Equivalent ICRF heliocentric cartesian coordinates (au, au/d):
   X=-6.842297687009524E-02  Y= 9.429126817220428E-01  Z= 4.143187104036840E-01
  VX=-1.695115058702848E-02 VY=-2.997207899955317E-03 VZ=-2.239432528215744E-03
Asteroid physical parameters (km, seconds, rotational period in hours):        
   GM= n.a.                RAD= n.a.               ROTPER= n.a.                
   H= 26.5                 G= .150                 B-V= n.a.                   
                           ALBEDO= n.a.            STYP= n.a.                  
*******************************************************************************
 Date__(UT)__HR:MN     R.A._________(ICRF)_________DEC
******************************************************
$$SOE
 2018-Aug-14 22:26 Cm  02 59 53.203400 +22 15 49.81776
 2018-Aug-14 22:27 Cm  02 59 53.309895 +22 15 50.38306
 2018-Aug-14 22:28 Cm  02 59 53.416390 +22 15 50.94843
 2018-Aug-14 22:29 Cm  02 59 53.522883 +22 15 51.51388
 2018-Aug-14 22:30 Cm  02 59 53.629375 +22 15 52.07941
 2018-Aug-14 22:31 Cm  02 59 53.735866 +22 15 52.64501
 2018-Aug-14 22:32 Cm  02 59 53.842356 +22 15 53.21069
 2018-Aug-14 22:33 Cm  02 59 53.948844 +22 15 53.77645
 2018-Aug-14 22:34 Cm  02 59 54.055331 +22 15 54.34228
 2018-Aug-14 22:35 Cm  02 59 54.161816 +22 15 54.90818
 2018-Aug-14 22:36 Cm  02 59 54.268300 +22 15 55.47416
 2018-Aug-14 22:37 Cm  02 59 54.374782 +22 15 56.04022
 2018-Aug-14 22:38 Cm  02 59 54.481263 +22 15 56.60636
 2018-Aug-14 22:39 Cm  02 59 54.587742 +22 15 57.17257
 2018-Aug-14 22:40 Cm  02 59 54.694219 +22 15 57.73885
 2018-Aug-14 22:41 Cm  02 59 54.800694 +22 15 58.30522
 2018-Aug-14 22:42 Cm  02 59 54.907167 +22 15 58.87165
 2018-Aug-14 22:43 Nm  02 59 55.013639 +22 15 59.43817
 2018-Aug-14 22:44 Nm  02 59 55.120108 +22 16 00.00476
 2018-Aug-14 22:45 Nm  02 59 55.226575 +22 16 00.57142
 2018-Aug-14 22:46 Nm  02 59 55.333040 +22 16 01.13816
 2018-Aug-14 22:47 Nm  02 59 55.439502 +22 16 01.70498
 2018-Aug-14 22:48 Nm  02 59 55.545962 +22 16 02.27187
 2018-Aug-14 22:49 Nm  02 59 55.652420 +22 16 02.83883
 2018-Aug-14 22:50 Nm  02 59 55.758876 +22 16 03.40588
 2018-Aug-14 22:51 Nm  02 59 55.865329 +22 16 03.97299
 2018-Aug-14 22:52 Nm  02 59 55.971779 +22 16 04.54019
 2018-Aug-14 22:53 Nm  02 59 56.078227 +22 16 05.10745
 2018-Aug-14 22:54 Nm  02 59 56.184671 +22 16 05.67480
 2018-Aug-14 22:55 Nm  02 59 56.291114 +22 16 06.24222
 2018-Aug-14 22:56 Nm  02 59 56.397553 +22 16 06.80971
 2018-Aug-14 22:57 Nm  02 59 56.503989 +22 16 07.37728
 2018-Aug-14 22:58 Nm  02 59 56.610423 +22 16 07.94492
 2018-Aug-14 22:59 Nm  02 59 56.716853 +22 16 08.51264
 2018-Aug-14 23:00 Nm  02 59 56.823280 +22 16 09.08043
 2018-Aug-14 23:01 Nm  02 59 56.929704 +22 16 09.64830
 2018-Aug-14 23:02 Nm  02 59 57.036125 +22 16 10.21624
 2018-Aug-14 23:03 Nm  02 59 57.142543 +22 16 10.78425
 2018-Aug-14 23:04 Nm  02 59 57.248957 +22 16 11.35234
 2018-Aug-14 23:05 Nm  02 59 57.355367 +22 16 11.92051
 2018-Aug-14 23:06 Nm  02 59 57.461775 +22 16 12.48875
 2018-Aug-14 23:07 Nm  02 59 57.568178 +22 16 13.05706
 2018-Aug-14 23:08 Nm  02 59 57.674578 +22 16 13.62545
 2018-Aug-14 23:09 Nm  02 59 57.780975 +22 16 14.19391
 2018-Aug-14 23:10 Nm  02 59 57.887367 +22 16 14.76244
 2018-Aug-14 23:11 Am  02 59 57.993756 +22 16 15.33105
 2018-Aug-14 23:12 Am  02 59 58.100141 +22 16 15.89974
 2018-Aug-14 23:13 Am  02 59 58.206522 +22 16 16.46849
 2018-Aug-14 23:14 Am  02 59 58.312899 +22 16 17.03732
 2018-Aug-14 23:15 Am  02 59 58.419272 +22 16 17.60623
 2018-Aug-14 23:16 Am  02 59 58.525640 +22 16 18.17520
 2018-Aug-14 23:17 Am  02 59 58.632005 +22 16 18.74425
 2018-Aug-14 23:18 Am  02 59 58.738365 +22 16 19.31338
 2018-Aug-14 23:19 Am  02 59 58.844721 +22 16 19.88257
 2018-Aug-14 23:20 Am  02 59 58.951073 +22 16 20.45184
 2018-Aug-14 23:21 Am  02 59 59.057420 +22 16 21.02119
 2018-Aug-14 23:22 Am  02 59 59.163762 +22 16 21.59060
 2018-Aug-14 23:23 Am  02 59 59.270100 +22 16 22.16009
 2018-Aug-14 23:24 Am  02 59 59.376434 +22 16 22.72965
 2018-Aug-14 23:25 Am  02 59 59.482762 +22 16 23.29928
 2018-Aug-14 23:26 Am  02 59 59.589086 +22 16 23.86899
 2018-Aug-14 23:27 Am  02 59 59.695405 +22 16 24.43877
 2018-Aug-14 23:28 Am  02 59 59.801719 +22 16 25.00862
 2018-Aug-14 23:29 Am  02 59 59.908029 +22 16 25.57854
 2018-Aug-14 23:30 Am  03 00 00.014333 +22 16 26.14853
 2018-Aug-14 23:31 Am  03 00 00.120632 +22 16 26.71860
 2018-Aug-14 23:32 Am  03 00 00.226926 +22 16 27.28873
 2018-Aug-14 23:33 Am  03 00 00.333215 +22 16 27.85894
 2018-Aug-14 23:34 Am  03 00 00.439498 +22 16 28.42922
 2018-Aug-14 23:35 Am  03 00 00.545776 +22 16 28.99957
 2018-Aug-14 23:36 Am  03 00 00.652049 +22 16 29.57000
 2018-Aug-14 23:37 Am  03 00 00.758316 +22 16 30.14049
 2018-Aug-14 23:38 Am  03 00 00.864578 +22 16 30.71106
 2018-Aug-14 23:39  m  03 00 00.970834 +22 16 31.28169
 2018-Aug-14 23:40  m  03 00 01.077085 +22 16 31.85240
 2018-Aug-14 23:41  m  03 00 01.183330 +22 16 32.42318
 2018-Aug-14 23:42  m  03 00 01.289569 +22 16 32.99402
 2018-Aug-14 23:43  m  03 00 01.395802 +22 16 33.56494
 2018-Aug-14 23:44  m  03 00 01.502029 +22 16 34.13593
 2018-Aug-14 23:45  m  03 00 01.608251 +22 16 34.70699
 2018-Aug-14 23:46  m  03 00 01.714466 +22 16 35.27811
 2018-Aug-14 23:47  m  03 00 01.820676 +22 16 35.84931
 2018-Aug-14 23:48  m  03 00 01.926879 +22 16 36.42058
 2018-Aug-14 23:49  m  03 00 02.033076 +22 16 36.99191
 2018-Aug-14 23:50  m  03 00 02.139267 +22 16 37.56332
 2018-Aug-14 23:51  m  03 00 02.245451 +22 16 38.13479
 2018-Aug-14 23:52  m  03 00 02.351629 +22 16 38.70634
 2018-Aug-14 23:53  m  03 00 02.457801 +22 16 39.27795
 2018-Aug-14 23:54  m  03 00 02.563966 +22 16 39.84963
 2018-Aug-14 23:55  m  03 00 02.670125 +22 16 40.42138
 2018-Aug-14 23:56  m  03 00 02.776277 +22 16 40.99320
 2018-Aug-14 23:57  m  03 00 02.882423 +22 16 41.56509
 2018-Aug-14 23:58  m  03 00 02.988561 +22 16 42.13704
 2018-Aug-14 23:59  m  03 00 03.094693 +22 16 42.70907
 2018-Aug-15 00:00  m  03 00 03.200818 +22 16 43.28116
 2018-Aug-15 00:01  m  03 00 03.306936 +22 16 43.85332
 2018-Aug-15 00:02  m  03 00 03.413047 +22 16 44.42554
 2018-Aug-15 00:03  m  03 00 03.519152 +22 16 44.99784
 2018-Aug-15 00:04  m  03 00 03.625249 +22 16 45.57020
 2018-Aug-15 00:05  m  03 00 03.731339 +22 16 46.14262
 2018-Aug-15 00:06  m  03 00 03.837421 +22 16 46.71512
 2018-Aug-15 00:07  m  03 00 03.943497 +22 16 47.28768
 2018-Aug-15 00:08  m  03 00 04.049565 +22 16 47.86031
 2018-Aug-15 00:09  m  03 00 04.155626 +22 16 48.43300
 2018-Aug-15 00:10  m  03 00 04.261679 +22 16 49.00576
 2018-Aug-15 00:11  m  03 00 04.367725 +22 16 49.57859
 2018-Aug-15 00:12  m  03 00 04.473764 +22 16 50.15148
 2018-Aug-15 00:13  m  03 00 04.579794 +22 16 50.72444
 2018-Aug-15 00:14  m  03 00 04.685817 +22 16 51.29746
 2018-Aug-15 00:15  m  03 00 04.791833 +22 16 51.87055
 2018-Aug-15 00:16  m  03 00 04.897841 +22 16 52.44370
 2018-Aug-15 00:17  m  03 00 05.003840 +22 16 53.01692
 2018-Aug-15 00:18  m  03 00 05.109832 +22 16 53.59020
 2018-Aug-15 00:19  m  03 00 05.215816 +22 16 54.16355
 2018-Aug-15 00:20  m  03 00 05.321792 +22 16 54.73696
 2018-Aug-15 00:21  m  03 00 05.427760 +22 16 55.31044
 2018-Aug-15 00:22  m  03 00 05.533720 +22 16 55.88398
 2018-Aug-15 00:23  m  03 00 05.639672 +22 16 56.45759
 2018-Aug-15 00:24  m  03 00 05.745615 +22 16 57.03125
 2018-Aug-15 00:25  m  03 00 05.851550 +22 16 57.60498
 2018-Aug-15 00:26  m  03 00 05.957477 +22 16 58.17878
 2018-Aug-15 00:27  m  03 00 06.063395 +22 16 58.75264
 2018-Aug-15 00:28  m  03 00 06.169305 +22 16 59.32656
